LEMUR-2-LEIA-PHILIP     
1 63246U 25052AN  26202.15082932  .00000499  00000+0  47869-4 0  9996
2 63246  97.6788  93.5247 0005054 107.2779 252.8997 14.97395495 73755
LEMUR-2-LIA-MARTIN      
1 63248U 25052AQ  26202.14280741  .00002236  00000+0  19401-3 0  9996
2 63248  97.6847  94.0459 0004870  75.2895 284.8867 14.98051983 73766
LEMUR-2-DELOITTE-1      
1 63259U 25052BB  26202.12423100  .00002944  00000+0  25549-3 0  9990
2 63259  97.6886  94.3577 0002510  55.5698 304.5761 14.97814493 73772
LEMUR-2-EMERSONROSE     
1 63261U 25052BD  26202.13244693  .00002718  00000+0  22731-3 0  9991
2 63261  97.6884  94.9926 0002365  45.2798 314.8618 14.99322635 73827
LEMUR-2-MARACHE-FRAN    
1 63262U 25052BE  26202.15112720  .00002818  00000+0  22930-3 0  9991
2 63262  97.6813  95.3832 0005908 228.7343 131.3372 15.00339650 73851
LEMUR-2-THEFALCONER     
1 63264U 25052BG  26202.15558371  .00001948  00000+0  17170-3 0  9992
2 63264  97.6812  93.9722 0000783 214.7460 145.3711 14.97581436 73774
LEMUR-2-UNTITLED-SC     
1 63351U 25061A   26202.20167102  .00002392  00000+0  13612-3 0  9994
2 63351  97.5662 177.3242 0019739 143.1626 217.0966 15.13671379 72736
LEMUR-2-ESPERANZA       
1 63352U 25061B   26202.24268582  .00002302  00000+0  13075-3 0  9997
2 63352  97.5669 177.4666 0019387 142.4352 217.8238 15.13777808 72747
LEMUR-2-KREMPEL-BRO2    
1 63353U 25061C   26202.19387001  .00002484  00000+0  13908-3 0  9996
2 63353  97.5714 177.9947 0020473 135.5460 224.7419 15.14205287 72754
LEMUR-2-THERMORAPTOR    
1 63354U 25061D   26202.17409851  .00002434  00000+0  13605-3 0  9992
2 63354  97.5721 178.0573 0020210 134.6013 225.6872 15.14288331 72757
LEMUR-2-NEUROSPICY      
1 63355U 25061E   26201.87884645  .00002310  00000+0  12904-3 0  9991
2 63355  97.5648 177.3637 0017959 138.3390 221.9213 15.14404805 72714
LEMUR-2-TILLINFINITY    
1 63356U 25061F   26201.90112556  .00002527  00000+0  13843-3 0  9994
2 63356  97.5632 177.6998 0019489 127.4100 232.8910 15.14989431 72740
LEMUR-2-KREMPEL-BRO1    
1 63357U 25061G   26201.87890455  .00002321  00000+0  12808-3 0  9994
2 63357  97.5634 177.5844 0020100 128.7862 231.5169 15.14796156 72734
LEMUR-2-LANGER2SPACE    
1 63358U 25061H   26202.17646233  .00002473  00000+0  13751-3 0  9998
2 63358  97.5639 177.6807 0017919 135.8259 224.4408 15.14492070 72761
LEMUR-2-BALTO           
1 63395U 25052BH  26202.13527597  .00003193  00000+0  25886-3 0  9998
2 63395  97.6918  95.3639 0004995 301.8348  58.2389 15.00395215 73856
LEMUR-2-KRISH           
1 64561U 25135AK  26202.04458158  .00003112  00000+0  27924-3 0  9998
2 64561  97.7761 316.6976 0001136 108.7454 251.3890 14.96474549 58980
